[{"OBJECT_NAME":"KUIPER-00079","OBJECT_ID":"2025-151L","EPOCH":"2026-03-09T19:51:29.525184","MEAN_MOTION":14.79928203,"ECCENTRICITY":8.516e-5,"INCLINATION":51.8985,"RA_OF_ASC_NODE":299.9538,"ARG_OF_PERICENTER":76.9433,"MEAN_ANOMALY":283.1624,"EPHEMERIS_TYPE":0,"CLASSIFICATION_TYPE":"U","NORAD_CAT_ID":64826,"ELEMENT_SET_NO":999,"REV_AT_EPOCH":3652,"BSTAR":-2.9016916e-5,"MEAN_MOTION_DOT":-4.42e-6,"MEAN_MOTION_DDOT":0},{"OBJECT_NAME":"SL-14 R\/B","OBJECT_ID":"1992-094B","EPOCH":"2026-03-09T19:56:29.702112","MEAN_MOTION":14.80051902,"ECCENTRICITY":0.00233094,"INCLINATION":82.5276,"RA_OF_ASC_NODE":352.7335,"ARG_OF_PERICENTER":339.5847,"MEAN_ANOMALY":20.4431,"EPHEMERIS_TYPE":0,"CLASSIFICATION_TYPE":"U","NORAD_CAT_ID":22287,"ELEMENT_SET_NO":999,"REV_AT_EPOCH":76854,"BSTAR":7.242105e-5,"MEAN_MOTION_DOT":5.74e-6,"MEAN_MOTION_DDOT":0}]
